[Satellite]
VERSION=1.1
NAME=ASTRA 2G
NICKNAME=ASTRA 2G
TLE1=1 40364U 14089A   15054.71819586  .00000103  00000-0  00000+0 0  9992
TLE2=2 40364   0.0295 270.8598 0002568 124.7017  37.4344  1.00274439   608
